OBJECT_NAME,OBJECT_ID,EPOCH,MEAN_MOTION,ECCENTRICITY,INCLINATION,RA_OF_ASC_NODE,ARG_OF_PERICENTER,MEAN_ANOMALY,EPHEMERIS_TYPE,CLASSIFICATION_TYPE,NORAD_CAT_ID,ELEMENT_SET_NO,REV_AT_EPOCH,BSTAR,MEAN_MOTION_DOT,MEAN_MOTION_DDOT
NIMIQ 2,2002-062A,2026-07-13T12:29:38.799744,1.00270229,.0005242,9.5047,56.6156,54.1789,258.8055,0,U,27632,999,4444,0,-.8E-6,0
USA 167,2003-008A,2026-07-13T04:37:26.531616,1.00270462,.00032709,11.0111,43.1712,308.3672,247.1577,0,U,27691,999,703,0,-.6E-7,0
USA 169 (MILSTAR-2 4),2003-012A,2026-07-13T11:27:10.439424,1.00273417,.0099284,12.3880,29.6231,10.1906,215.4739,0,U,27711,999,3321,0,-.207E-5,0
ASIASAT 4,2003-014A,2026-07-13T12:36:13.125888,1.00270071,.000291,4.7691,75.4153,39.0469,153.5231,0,U,27718,999,4556,0,-.231E-5,0
HELLAS-SAT 2,2003-020A,2026-07-13T09:59:40.699392,1.00271268,.0003514,7.4173,67.5674,80.0666,283.5472,0,U,27811,999,4311,0,-.94E-6,0
THURAYA-2,2003-026A,2026-07-13T05:07:00.435072,1.00273123,.0002502,8.8786,31.8559,24.9215,355.0752,0,U,27825,999,8461,0,.117E-5,0
OPTUS C1,2003-028B,2026-07-13T11:06:06.992352,1.00269274,.0005194,6.9529,69.0880,40.5637,143.9237,0,U,27831,999,5332,0,-.162E-5,0
USA 170,2003-040A,2026-07-13T05:01:30.960768,1.00274265,.0001768,10.5535,47.6965,80.2773,262.7232,0,U,27875,999,3325,0,.116E-5,0
GALAXY 13 (HORIZONS-1),2003-044A,2026-07-13T12:32:34.774944,1.00270538,.0002162,1.4852,83.5286,26.9286,219.0706,0,U,27954,999,4683,0,.127E-5,0
YAMAL 202,2003-053A,2026-07-13T11:25:58.770624,1.00272052,.0003252,6.4063,70.6177,41.3950,154.3788,0,U,28089,999,8296,0,-.9E-6,0
UFO 11 (USA 174),2003-057A,2026-07-13T01:50:48.547392,1.00270253,.00026626,8.9553,33.6968,91.9224,268.6257,0,U,28117,999,8270,0,-.112E-5,0
USA 176 (DSP 22),2004-004A,2026-07-13T09:48:26.775072,1.00266283,.0001144,12.0970,25.8717,287.5538,75.5682,0,U,28158,999,3320,0,-.307E-5,0
ABS-4 (MOBISAT-1),2004-007A,2026-07-13T05:11:59.957088,1.00272902,.0004604,6.1049,71.6890,41.7603,316.5886,0,U,28184,999,5259,0,.31E-6,0
INTELSAT 10-02,2004-022A,2026-07-12T23:46:16.586400,1.00271565,.00005158,0.0534,251.1781,344.4139,50.8437,0,U,28358,999,8081,0,-.12E-6,0
ANIK F2,2004-027A,2026-07-13T12:29:38.799744,1.00271253,.0003552,3.3532,79.0942,31.4922,257.0931,0,U,28378,999,4152,0,-.57E-6,0
AMC-15,2004-041A,2026-07-12T07:22:38.750880,1.00271234,.00022643,0.0346,304.3045,184.5757,166.9270,0,U,28446,999,7955,0,-.87E-6,0
NSS-10,2005-003A,2026-07-13T11:34:27.733152,1.00270496,.0002576,6.5131,70.1303,39.8606,317.5303,0,U,28526,999,5341,0,-.261E-5,0
INMARSAT 4-F1,2005-009A,2026-07-12T07:47:38.777568,1.00271047,.00024737,5.2012,42.7812,73.2040,109.2466,0,U,28628,999,7792,0,.3E-6,0
DIRECTV 8,2005-019A,2026-07-13T12:14:32.074080,1.00271379,.000302,0.0145,342.1932,144.6341,229.1369,0,U,28659,999,7733,0,-.2E-7,0
GALAXY 28 (G-28),2005-022A,2026-07-13T06:29:27.310272,1.00270676,.0002307,3.3636,78.6126,32.1993,250.5910,0,U,28702,999,5223,0,-.206E-5,0
THAICOM 4,2005-028A,2026-07-13T12:56:38.626080,1.00270507,.0001383,0.3111,85.5327,9.6042,149.9277,0,U,28786,999,5251,0,-.366E-5,0
ANIK F1R,2005-036A,2026-07-13T12:24:47.545344,1.00271332,.0003707,4.3776,76.2517,28.2688,265.7688,0,U,28868,999,4671,0,-.83E-6,0
SYRACUSE 3A,2005-041B,2026-07-13T05:07:52.852224,1.00273254,.0002729,4.7063,75.5196,31.7280,307.4488,0,U,28885,999,7600,0,.122E-5,0
INMARSAT 4-F2,2005-044A,2026-07-13T12:26:07.434240,1.00270501,.0002779,5.1293,43.6582,60.6770,157.0798,0,U,28899,999,7578,0,-.268E-5,0
METEOSAT-9 (MSG-2),2005-049B,2026-07-13T05:07:37.874784,1.00271011,.0002075,9.4181,53.9066,356.1561,3.6006,0,U,28912,999,725,0,.115E-5,0
EUTELSAT 174A,2005-052A,2026-07-13T12:53:13.812288,1.00270669,.0005787,4.2830,76.2001,38.3133,184.1521,0,U,28924,999,5259,0,0,0
ECHOSTAR 10,2006-003A,2026-07-13T12:29:38.799744,1.00270697,.0001049,0.0332,312.2577,137.1642,279.2037,0,U,28935,999,7472,0,-.59E-6,0
SPAINSAT,2006-007A,2026-07-13T06:36:17.570304,1.00269749,.0004598,0.6284,86.0871,25.7903,248.1587,0,U,28945,999,7447,0,-.221E-5,0
JCSAT-5A,2006-010A,2026-07-13T12:22:52.743936,1.00270061,.0001642,1.1751,83.9229,25.3093,139.9125,0,U,29045,999,7403,0,-.333E-5,0
ASTRA 1KR,2006-012A,2026-07-13T08:25:18.668928,1.00269516,.0003275,0.5391,83.1796,21.3674,332.0087,0,U,29055,999,4595,0,.115E-5,0
GALAXY 16 (G-16),2006-023A,2026-07-13T12:03:33.018336,1.00271432,.0002538,0.0279,169.1758,317.3215,246.7665,0,U,29236,999,7323,0,-.13E-5,0
EUTELSAT 33F,2006-032A,2026-07-13T11:54:40.795200,1.00270807,.0003375,1.7272,81.9485,27.4281,33.7240,0,U,29270,999,4757,0,.15E-5,0
