NIMIQ 2                 
1 27632U 02062A   26194.52058796 -.00000080  00000+0  00000+0 0  9991
2 27632   9.5047  56.6156 0005242  54.1789 258.8055  1.00270229 44445
USA 167                 
1 27691U 03008A   26194.19266819 -.00000006  00000+0  00000+0 0  9995
2 27691  11.0111  43.1712 0003270 308.3672 247.1577  1.00270462  7036
USA 169 (MILSTAR-2 4)   
1 27711U 03012A   26194.47720416 -.00000207  00000+0  00000+0 0  9995
2 27711  12.3880  29.6231 0099284  10.1906 215.4739  1.00273417 33219
ASIASAT 4               
1 27718U 03014A   26194.52515192 -.00000231  00000+0  00000+0 0  9990
2 27718   4.7691  75.4153 0002910  39.0469 153.5231  1.00270071 45560
HELLAS-SAT 2            
1 27811U 03020A   26194.41644328 -.00000094  00000+0  00000+0 0  9990
2 27811   7.4173  67.5674 0003514  80.0666 283.5472  1.00271268 43114
THURAYA-2               
1 27825U 03026A   26194.21319948  .00000117  00000+0  00000+0 0  9991
2 27825   8.8786  31.8559 0002502  24.9215 355.0752  1.00273123 84611
OPTUS C1                
1 27831U 03028B   26194.46258093 -.00000162  00000+0  00000+0 0  9991
2 27831   6.9529  69.0880 0005194  40.5637 143.9237  1.00269274 53322
USA 170                 
1 27875U 03040A   26194.20938612  .00000116  00000+0  00000+0 0  9995
2 27875  10.5535  47.6965 0001768  80.2773 262.7232  1.00274265 33250
GALAXY 13 (HORIZONS-1)  
1 27954U 03044A   26194.52262471  .00000127  00000+0  00000+0 0  9997
2 27954   1.4852  83.5286 0002162  26.9286 219.0706  1.00270538 46837
YAMAL 202               
1 28089U 03053A   26194.47637466 -.00000090  00000+0  00000+0 0  9991
2 28089   6.4063  70.6177 0003252  41.3950 154.3788  1.00272052 82960
UFO 11 (USA 174)        
1 28117U 03057A   26194.07695078 -.00000112  00000+0  00000+0 0  9991
2 28117   8.9553  33.6968 0002662  91.9224 268.6257  1.00270253 82702
USA 176 (DSP 22)        
1 28158U 04004A   26194.40864323 -.00000307  00000+0  00000+0 0  9993
2 28158  12.0970  25.8717 0001144 287.5538  75.5682  1.00266283 33202
ABS-4 (MOBISAT-1)       
1 28184U 04007A   26194.21666617  .00000031  00000+0  00000+0 0  9993
2 28184   6.1049  71.6890 0004604  41.7603 316.5886  1.00272902 52592
INTELSAT 10-02          
1 28358U 04022A   26193.99046975 -.00000012  00000+0  00000+0 0  9996
2 28358   0.0534 251.1781 0000515 344.4139  50.8437  1.00271565 80815
ANIK F2                 
1 28378U 04027A   26194.52058796 -.00000057  00000+0  00000+0 0  9996
2 28378   3.3532  79.0942 0003552  31.4922 257.0931  1.00271253 41523
AMC-15                  
1 28446U 04041A   26193.30739295 -.00000087  00000+0  00000+0 0  9996
2 28446   0.0346 304.3045 0002264 184.5757 166.9270  1.00271234 79556
NSS-10                  
1 28526U 05003A   26194.48226543 -.00000261  00000+0  00000+0 0  9995
2 28526   6.5131  70.1303 0002576  39.8606 317.5303  1.00270496 53411
INMARSAT 4-F1           
1 28628U 05009A   26193.32475437  .00000030  00000+0  00000+0 0  9997
2 28628   5.2012  42.7812 0002473  73.2040 109.2466  1.00271047 77929
DIRECTV 8               
1 28659U 05019A   26194.51009345 -.00000002  00000+0  00000+0 0  9995
2 28659   0.0145 342.1932 0003020 144.6341 229.1369  1.00271379 77336
GALAXY 28 (G-28)        
1 28702U 05022A   26194.27045498 -.00000206  00000+0  00000+0 0  9996
2 28702   3.3636  78.6126 0002307  32.1993 250.5910  1.00270676 52234
THAICOM 4               
1 28786U 05028A   26194.53933595 -.00000366  00000+0  00000+0 0  9994
2 28786   0.3111  85.5327 0001383   9.6042 149.9277  1.00270507 52519
ANIK F1R                
1 28868U 05036A   26194.51721696 -.00000083  00000+0  00000+0 0  9995
2 28868   4.3776  76.2517 0003707  28.2688 265.7688  1.00271332 46719
SYRACUSE 3A             
1 28885U 05041B   26194.21380616  .00000122  00000+0  00000+0 0  9993
2 28885   4.7063  75.5196 0002729  31.7280 307.4488  1.00273254 76008
INMARSAT 4-F2           
1 28899U 05044A   26194.51814160 -.00000268  00000+0  00000+0 0  9992
2 28899   5.1293  43.6582 0002779  60.6770 157.0798  1.00270501 75787
METEOSAT-9 (MSG-2)      
1 28912U 05049B   26194.21363281  .00000115  00000+0  00000+0 0  9993
2 28912   9.4181  53.9066 0002075 356.1561   3.6006  1.00271011  7259
EUTELSAT 174A           
1 28924U 05052A   26194.53696542  .00000000  00000+0  00000+0 0  9997
2 28924   4.2830  76.2001 0005787  38.3133 184.1521  1.00270669 52592
ECHOSTAR 10             
1 28935U 06003A   26194.52058796 -.00000059  00000+0  00000+0 0  9993
2 28935   0.0332 312.2577 0001049 137.1642 279.2037  1.00270697 74724
SPAINSAT                
1 28945U 06007A   26194.27520336 -.00000221  00000+0  00000+0 0  9995
2 28945   0.6284  86.0871 0004598  25.7903 248.1587  1.00269749 74477
JCSAT-5A                
1 29045U 06010A   26194.51588824 -.00000333  00000+0  00000+0 0  9998
2 29045   1.1751  83.9229 0001642  25.3093 139.9125  1.00270061 74036
ASTRA 1KR               
1 29055U 06012A   26194.35091052  .00000115  00000+0  00000+0 0  9992
2 29055   0.5391  83.1796 0003275  21.3674 332.0087  1.00269516 45951
GALAXY 16 (G-16)        
1 29236U 06023A   26194.50246549 -.00000130  00000+0  00000+0 0  9993
2 29236   0.0279 169.1758 0002538 317.3215 246.7665  1.00271432 73230
EUTELSAT 33F            
1 29270U 06032A   26194.49630550  .00000150  00000+0  00000+0 0  9999
2 29270   1.7272  81.9485 0003375  27.4281  33.7240  1.00270807 47575
